O3B MPOWER F1           
1 54755U 22174A   26201.82464764 -.00000024  00000+0  00000+0 0  9999
2 54755   0.0487 338.9850 0006672 150.4659  49.9090  5.00114795 67044
O3B MPOWER F2           
1 54756U 22174B   26201.69179937 -.00000024  00000+0  00000+0 0  9990
2 54756   0.0446 339.7122 0005775 133.6795 246.6661  5.00114956 67126
O3B MPOWER F4           
1 56367U 23059A   26201.55613232 -.00000024  00000+0  00000+0 0  9999
2 56367   0.0628 349.0748 0007736 132.5958 238.4021  5.00115378 60271
O3B MPOWER F3           
1 56368U 23059B   26201.78914327 -.00000024  00000+0  00000+0 0  9994
2 56368   0.0635 348.2304 0006652 127.1534 244.6822  5.00116473 56411
O3B MPOWER F5           
1 58346U 23175A   26201.49036564 -.00000024  00000+0  00000+0 0  9997
2 58346   0.0530   8.6566 0005566 128.5497 222.8340  5.00115850 51108
O3B MPOWER F6           
1 58347U 23175B   26201.79073498 -.00000024  00000+0  00000+0 0  9998
2 58347   0.0544   0.2029 0004432 117.9293 241.9098  5.00115770 50026
O3B MPOWER F7           
1 62362U 24244A   26201.85714084 -.00000024  00000+0  00000+0 0  9998
2 62362   0.0655 341.7080 0005927 133.1002 245.2506  5.00115354 28203
O3B MPOWER F8           
1 62363U 24244B   26201.22442198 -.00000024  00000+0  00000+0 0  9994
2 62363   0.0150  10.0115 0005698  97.2736 252.7740  5.00115056 22529
O3B MPOWER F9           
1 64866U 25153A   26201.55757738 -.00000024  00000+0  00000+0 0  9999
2 64866   0.0619   4.7003 0006782 131.9586 223.3916  5.00115650 21235
O3B MPOWER F10          
1 64867U 25153B   26201.72353033 -.00000024  00000+0  00000+0 0  9999
2 64867   0.0588   1.3363 0002559 246.4246 112.2090  5.00114935 23704
