{"fetched_at":"2026-07-21T07:07:04.705Z","source":"https://celestrak.org/NORAD/elements/gp.php?NAME=O3B&FORMAT=JSON","constellation":"o3b-mpower","records":[{"OBJECT_NAME":"O3B MPOWER F1","OBJECT_ID":"2022-174A","EPOCH":"2026-07-20T19:47:29.556096","CLASSIFICATION_TYPE":"U","MEAN_MOTION":5.00114795,"ECCENTRICITY":0.00066721,"INCLINATION":0.0487,"RA_OF_ASC_NODE":338.985,"ARG_OF_PERICENTER":150.4659,"MEAN_ANOMALY":49.909,"EPHEMERIS_TYPE":0,"NORAD_CAT_ID":54755,"ELEMENT_SET_NO":999,"REV_AT_EPOCH":6704,"BSTAR":0,"MEAN_MOTION_DOT":-2.4e-7,"MEAN_MOTION_DDOT":0},{"OBJECT_NAME":"O3B MPOWER F2","OBJECT_ID":"2022-174B","EPOCH":"2026-07-20T16:36:11.465568","CLASSIFICATION_TYPE":"U","MEAN_MOTION":5.00114956,"ECCENTRICITY":0.00057753,"INCLINATION":0.0446,"RA_OF_ASC_NODE":339.7122,"ARG_OF_PERICENTER":133.6795,"MEAN_ANOMALY":246.6661,"EPHEMERIS_TYPE":0,"NORAD_CAT_ID":54756,"ELEMENT_SET_NO":999,"REV_AT_EPOCH":6712,"BSTAR":0,"MEAN_MOTION_DOT":-2.4e-7,"MEAN_MOTION_DDOT":0},{"OBJECT_NAME":"O3B MPOWER F4","OBJECT_ID":"2023-059A","EPOCH":"2026-07-20T13:20:49.832448","CLASSIFICATION_TYPE":"U","MEAN_MOTION":5.00115378,"ECCENTRICITY":0.00077367,"INCLINATION":0.0628,"RA_OF_ASC_NODE":349.0748,"ARG_OF_PERICENTER":132.5958,"MEAN_ANOMALY":238.4021,"EPHEMERIS_TYPE":0,"NORAD_CAT_ID":56367,"ELEMENT_SET_NO":999,"REV_AT_EPOCH":6027,"BSTAR":0,"MEAN_MOTION_DOT":-2.4e-7,"MEAN_MOTION_DDOT":0},{"OBJECT_NAME":"O3B MPOWER F3","OBJECT_ID":"2023-059B","EPOCH":"2026-07-20T18:56:21.978528","CLASSIFICATION_TYPE":"U","MEAN_MOTION":5.00116473,"ECCENTRICITY":0.00066526,"INCLINATION":0.0635,"RA_OF_ASC_NODE":348.2304,"ARG_OF_PERICENTER":127.1534,"MEAN_ANOMALY":244.6822,"EPHEMERIS_TYPE":0,"NORAD_CAT_ID":56368,"ELEMENT_SET_NO":999,"REV_AT_EPOCH":5641,"BSTAR":0,"MEAN_MOTION_DOT":-2.4e-7,"MEAN_MOTION_DDOT":0},{"OBJECT_NAME":"O3B MPOWER F5","OBJECT_ID":"2023-175A","EPOCH":"2026-07-20T11:46:07.591296","CLASSIFICATION_TYPE":"U","MEAN_MOTION":5.0011585,"ECCENTRICITY":0.00055662,"INCLINATION":0.053,"RA_OF_ASC_NODE":8.6566,"ARG_OF_PERICENTER":128.5497,"MEAN_ANOMALY":222.834,"EPHEMERIS_TYPE":0,"NORAD_CAT_ID":58346,"ELEMENT_SET_NO":999,"REV_AT_EPOCH":5110,"BSTAR":0,"MEAN_MOTION_DOT":-2.4e-7,"MEAN_MOTION_DDOT":0},{"OBJECT_NAME":"O3B MPOWER F6","OBJECT_ID":"2023-175B","EPOCH":"2026-07-20T18:58:39.502272","CLASSIFICATION_TYPE":"U","MEAN_MOTION":5.0011577,"ECCENTRICITY":0.00044326,"INCLINATION":0.0544,"RA_OF_ASC_NODE":0.2029,"ARG_OF_PERICENTER":117.9293,"MEAN_ANOMALY":241.9098,"EPHEMERIS_TYPE":0,"NORAD_CAT_ID":58347,"ELEMENT_SET_NO":999,"REV_AT_EPOCH":5002,"BSTAR":0,"MEAN_MOTION_DOT":-2.4e-7,"MEAN_MOTION_DDOT":0},{"OBJECT_NAME":"O3B MPOWER F7","OBJECT_ID":"2024-244A","EPOCH":"2026-07-20T20:34:16.968576","CLASSIFICATION_TYPE":"U","MEAN_MOTION":5.00115354,"ECCENTRICITY":0.00059272,"INCLINATION":0.0655,"RA_OF_ASC_NODE":341.708,"ARG_OF_PERICENTER":133.1002,"MEAN_ANOMALY":245.2506,"EPHEMERIS_TYPE":0,"NORAD_CAT_ID":62362,"ELEMENT_SET_NO":999,"REV_AT_EPOCH":2820,"BSTAR":0,"MEAN_MOTION_DOT":-2.4e-7,"MEAN_MOTION_DDOT":0},{"OBJECT_NAME":"O3B MPOWER F8","OBJECT_ID":"2024-244B","EPOCH":"2026-07-20T05:23:10.059072","CLASSIFICATION_TYPE":"U","MEAN_MOTION":5.00115056,"ECCENTRICITY":0.00056989,"INCLINATION":0.015,"RA_OF_ASC_NODE":10.0115,"ARG_OF_PERICENTER":97.2736,"MEAN_ANOMALY":252.774,"EPHEMERIS_TYPE":0,"NORAD_CAT_ID":62363,"ELEMENT_SET_NO":999,"REV_AT_EPOCH":2252,"BSTAR":0,"MEAN_MOTION_DOT":-2.4e-7,"MEAN_MOTION_DDOT":0},{"OBJECT_NAME":"O3B MPOWER F9","OBJECT_ID":"2025-153A","EPOCH":"2026-07-20T13:22:54.685632","CLASSIFICATION_TYPE":"U","MEAN_MOTION":5.0011565,"ECCENTRICITY":0.00067828,"INCLINATION":0.0619,"RA_OF_ASC_NODE":4.7003,"ARG_OF_PERICENTER":131.9586,"MEAN_ANOMALY":223.3916,"EPHEMERIS_TYPE":0,"NORAD_CAT_ID":64866,"ELEMENT_SET_NO":999,"REV_AT_EPOCH":2123,"BSTAR":0,"MEAN_MOTION_DOT":-2.4e-7,"MEAN_MOTION_DDOT":0},{"OBJECT_NAME":"O3B MPOWER F10","OBJECT_ID":"2025-153B","EPOCH":"2026-07-20T17:21:53.020512","CLASSIFICATION_TYPE":"U","MEAN_MOTION":5.00114935,"ECCENTRICITY":0.00025592,"INCLINATION":0.0588,"RA_OF_ASC_NODE":1.3363,"ARG_OF_PERICENTER":246.4246,"MEAN_ANOMALY":112.209,"EPHEMERIS_TYPE":0,"NORAD_CAT_ID":64867,"ELEMENT_SET_NO":999,"REV_AT_EPOCH":2370,"BSTAR":0,"MEAN_MOTION_DOT":-2.4e-7,"MEAN_MOTION_DDOT":0}]}
